TEVEL2-6                
1 63215U 25052F   26068.64958975  .00021046  00000+0  70909-3 0  9996
2 63215  97.4016 325.0381 0004769  95.6604 264.5181 15.30760889 54861
STARLINK-35862          
1 66628U 25271M   26068.47758524  .00017463  00000+0  60039-3 0  9990
2 66628  53.1564 140.9573 0000793  90.6009 269.5083 15.30197618 17536
